     3.04           N: GNSS NAV DATA    M: MIXED NAV DATA   RINEX VERSION / TYPE
NetR9 5.45          Receiver Operator   20220501 230000 UTC PGM / RUN BY / DATE
GPSA    .1863D-07   .1490D-07  -.1192D-06  -.1192D-06       IONOSPHERIC CORR
GPSB    .1147D+06   .6554D+05  -.1966D+06  -.6554D+05       IONOSPHERIC CORR
GAL     .1090D+03   .1055D+00   .1163D-01   .0000D+00       IONOSPHERIC CORR
QZSA    .2421D-07   .1490D-07  -.4172D-06  -.8941D-06       IONOSPHERIC CORR
QZSB    .1229D+06   .3277D+05   .6554D+05   .2097D+07       IONOSPHERIC CORR
BDSA    .2515D-07   .3427D-06  -.2384D-05   .3457D-05       IONOSPHERIC CORR
BDSB    .1618D+06  -.7864D+06   .4194D+07  -.2753D+07       IONOSPHERIC CORR
GPUT   .9313225746D-09  .355271368D-14 233472 2208          TIME SYSTEM CORR
GAUT  -.9313225746D-09  .888178420D-15      0 2208          TIME SYSTEM CORR
BDUT  -.4656612873D-08  .000000000D+00     14  852          TIME SYSTEM CORR
QZUT  -.1862645149D-08  .000000000D+00 266240 2208          TIME SYSTEM CORR
GAGP   .4307366908D-08  .266453526D-14  86400 2208          TIME SYSTEM CORR
    18    18  2185     7                                    LEAP SECONDS
                                                            END OF HEADER
R14 2022 05 01 22 45 00  .771274790168D-04  .000000000000D+00  .827700000000D+05
      .124784570312D+04 -.206100273132D+01  .000000000000D+00  .000000000000D+00
      .147447822266D+05 -.195894050598D+01 -.931322574615D-09 -.700000000000D+01
      .207916831055D+05  .151190090179D+01 -.186264514923D-08  .000000000000D+00
R20 2022 05 01 22 45 00 -.697458162904D-04  .000000000000D+00  .827700000000D+05
      .240509448242D+05  .380471229553D+00  .186264514923D-08  .000000000000D+00
     -.788366015625D+04 -.368677139282D+00  .279396772385D-08  .200000000000D+01
      .337368457031D+04 -.357272911072D+01 -.186264514923D-08  .000000000000D+00
C09 2022 05 01 22 00 00 -.748165417463D-03 -.352038398432D-10  .000000000000D+00
      .100000000000D+01 -.218375000000D+03  .135969949408D-08 -.214340643586D+01
     -.717118382454D-05  .959544221405D-02  .124741345644D-04  .649304734421D+04
      .792000000000D+05 -.116415321827D-06 -.693489521685D+00 -.222120434046D-06
      .950814254647D+00 -.138328125000D+03 -.232059177913D+01 -.195043838644D-08
     -.113683306795D-08  .000000000000D+00  .852000000000D+03  .000000000000D+00
      .200000000000D+01  .000000000000D+00  .690000012682D-08  .370000000000D-08
      .792000000000D+05  .000000000000D+00
C23 2022 05 01 22 00 00 -.930447713472D-03  .103295150211D-11  .000000000000D+00
      .100000000000D+01  .887500000000D+02  .357943481211D-08  .193835001183D+01
      .451132655144D-05  .921461032704D-04  .117579475045D-04  .528262869072D+04
      .792000000000D+05  .433064997196D-07  .257810475893D+00  .451691448689D-07
      .948069735481D+00  .117312500000D+03 -.152666966753D+01 -.661313260637D-08
      .271439877989D-10  .000000000000D+00  .852000000000D+03  .000000000000D+00
      .200000000000D+01  .000000000000D+00  .245000002508D-07  .245000000000D-07
      .792000000000D+05  .100000000000D+01
C05 2022 05 01 22 00 00  .228527234867D-03  .801314570253D-11  .000000000000D+00
      .000000000000D+00 -.592250000000D+03 -.112718980912D-08 -.257107355478D+01
     -.194977037609D-04  .151516473852D-02  .146497040987D-04  .649350509834D+04
      .792000000000D+05 -.451691448689D-07  .283791103836D+01 -.139698386192D-08
      .103324152826D+00 -.446046875000D+03  .251029280057D+00  .216294723829D-08
      .512521348571D-09  .000000000000D+00  .852000000000D+03  .000000000000D+00
      .200000000000D+01  .000000000000D+00 -.200000002670D-09 -.920000000000D-08
      .792000000000D+05  .000000000000D+00
C25 2022 05 01 22 00 00 -.742828124203D-03  .537170308235D-11  .000000000000D+00
      .100000000000D+01  .884843750000D+02  .351836083957D-08  .663920344136D+00
      .443775206804D-05  .441235722974D-03  .119530595839D-04  .528263238907D+04
      .792000000000D+05 -.959262251854D-07  .232812970006D+00  .325962901115D-07
      .949434997927D+00  .113125000000D+03  .508980016146D+00 -.655634452664D-08
     -.700029159024D-10  .000000000000D+00  .852000000000D+03  .000000000000D+00
      .200000000000D+01  .000000000000D+00  .200000002670D-09  .200000000000D-09
      .792000000000D+05  .100000000000D+01
C29 2022 05 01 22 00 00  .548943877220D-03  .514432940690D-11  .000000000000D+00
      .100000000000D+01 -.133343750000D+03  .399552357245D-08  .979375753743D+00
     -.651832669973D-05  .326888752170D-03  .371644273400D-05  .528261947441D+04
      .792000000000D+05 -.689178705215D-07  .232401317293D+01  .642612576485D-07
      .964085331052D+00  .286906250000D+03  .122253651532D+01 -.708208071137D-08
     -.244295890190D-09  .000000000000D+00  .852000000000D+03  .000000000000D+00
      .200000000000D+01  .000000000000D+00 -.800000010681D-09 -.800000000000D-09
      .792000000000D+05  .100000000000D+01
C07 2022 05 01 22 00 00 -.111786066554D-03 -.487405671379D-10  .000000000000D+00
      .100000000000D+01  .593171875000D+03  .182471886401D-08 -.297472481364D+01
      .198143534362D-04  .205044308677D-02 -.684848055243D-05  .649359564018D+04
      .792000000000D+05 -.155065208673D-06  .124396022060D+01  .186264514923D-07
      .877465360560D+00  .425015625000D+03  .311036880159D+01 -.274725729144D-08
      .565380693232D-09  .000000000000D+00  .852000000000D+03  .000000000000D+00
      .200000000000D+01  .000000000000D+00  .142000002867D-07  .700000000000D-09
      .821100000000D+05  .000000000000D+00
C19 2022 05 01 22 00 00  .873625278473D-03 -.312549985892D-11  .000000000000D+00
      .100000000000D+01  .269531250000D+02  .408445584827D-08  .121547211757D+01
      .119581818581D-05  .105965742841D-02  .520749017596D-05  .528261310577D+04
      .792000000000D+05 -.465661287308D-09 -.184421317033D+01  .465661287308D-08
      .968625564606D+00  .255968750000D+03 -.109915241433D+01 -.687171480593D-08
      .233224000430D-09  .000000000000D+00  .852000000000D+03  .000000000000D+00
      .200000000000D+01  .000000000000D+00  .118000000882D-07  .118000000000D-07
      .808800000000D+05  .100000000000D+01
C20 2022 05 01 22 00 00 -.898254686035D-03 -.144897427390D-10  .000000000000D+00
      .100000000000D+01  .330937500000D+02  .412302888356D-08  .159466370360D+01
      .173225998878D-05  .911772833206D-03  .506313517690D-05  .528261820412D+04
      .792000000000D+05  .358559191227D-07 -.184358810347D+01 -.139698386192D-07
      .968618595264D+00  .258250000000D+03 -.726216031938D+00 -.691778815364D-08
      .259653672761D-09  .000000000000D+00  .852000000000D+03  .000000000000D+00
      .200000000000D+01  .000000000000D+00  .223000000688D-07  .223000000000D-07
      .792000000000D+05  .100000000000D+01
C30 2022 05 01 22 00 00  .497823581100D-03  .569322367028D-12  .000000000000D+00
      .100000000000D+01 -.131312500000D+03  .400195241167D-08  .248137377161D+01
     -.642333179712D-05  .576337450184D-03  .378582626581D-05  .528261736679D+04
      .792000000000D+05 -.493600964546D-07  .232453302526D+01 -.149011611938D-07
      .964032768406D+00  .287000000000D+03  .532007205447D+00 -.700279169438D-08
     -.256439253153D-09  .000000000000D+00  .852000000000D+03  .000000000000D+00
      .200000000000D+01  .000000000000D+00 -.104999999806D-07 -.105000000000D-07
      .792000000000D+05  .100000000000D+01
E 8 2022 05 01 22 40 00 -.521881622262D-03 -.643751718599D-11  .000000000000D+00
      .800000000000D+01 -.831250000000D+01  .360443585351D-08  .292274777755D+01
     -.575557351112D-06  .319874496199D-03  .359490513802D-05  .544059439087D+04
      .816000000000D+05 -.298023223877D-07 -.132919438342D+01 -.111758708954D-07
      .961777533895D+00  .265562500000D+03 -.738459297211D+00 -.577059751141D-08
     -.203937066226D-09  .513000000000D+03  .220800000000D+04
      .312000000000D+01  .000000000000D+00 -.372529029846D-08 -.442378222942D-08
      .822850000000D+05
E 8 2022 05 01 22 40 00 -.521880108863D-03 -.643751718599D-11  .000000000000D+00
      .800000000000D+01 -.831250000000D+01  .360443585351D-08  .292274777755D+01
     -.575557351112D-06  .319874496199D-03  .359490513802D-05  .544059439087D+04
      .816000000000D+05 -.298023223877D-07 -.132919438342D+01 -.111758708954D-07
      .961777533895D+00  .265562500000D+03 -.738459297211D+00 -.577059751141D-08
     -.203937066226D-09  .258000000000D+03  .220800000000D+04
      .312000000000D+01  .000000000000D+00 -.372529029846D-08  .000000000000D+00
      .823200000000D+05
E 8 2022 05 01 22 40 00 -.521881622262D-03 -.643751718599D-11  .000000000000D+00
      .800000000000D+01 -.831250000000D+01  .360443585351D-08  .292274777755D+01
     -.575557351112D-06  .319874496199D-03  .359490513802D-05  .544059439087D+04
      .816000000000D+05 -.298023223877D-07 -.132919438342D+01 -.111758708954D-07
      .961777533895D+00  .265562500000D+03 -.738459297211D+00 -.577059751141D-08
     -.203937066226D-09  .516000000000D+03  .220800000000D+04
      .312000000000D+01  .000000000000D+00 -.372529029846D-08 -.442378222942D-08
      .822640000000D+05
E12 2022 05 01 22 20 00  .463488261448D-02 -.189857018995D-10  .000000000000D+00
      .600000000000D+01 -.178531250000D+03  .246760278556D-08  .740949985461D+00
     -.832788646221D-05  .474900240079D-03  .106003135443D-04  .544061794472D+04
      .804000000000D+05  .838190317154D-07  .285851038637D+01  .279396772385D-07
      .994823027584D+00  .126687500000D+03  .277512325125D+00 -.528522015063D-08
     -.178936024832D-09  .513000000000D+03  .220800000000D+04
      .312000000000D+01  .000000000000D+00 -.102445483208D-07 -.100117176771D-07
      .827650000000D+05
